ACS3                    
1 59588U 24077B   24168.73527700  .00000119  00000+0  17385-3 0  9994
2 59588  97.4060 237.0206 0021637  96.0368 264.3249 13.67686234  7344
